DMSP 5D-2 F14 (USA 131) 
1 24753U 97012A   19042.95784440  .00000024  00000-0  35327-4 0  9997
2 24753  99.0318  48.1398 0009158 152.8403 207.3250 14.15821573128661
NOAA 15                 
1 25338U 98030A   19042.96876821  .00000007  00000-0  21720-4 0  9997
2 25338  98.7574  64.3953 0009528 248.9753 111.0408 14.25894463 78933
DMSP 5D-3 F15 (USA 147) 
1 25991U 99067A   19042.88983653 -.00000097  00000-0 -26213-4 0  9999
2 25991  98.9007   7.4001 0010803  61.6060 357.4108 14.16538875990828
METEOSAT-8 (MSG-1)      
1 27509U 02040B   19043.19976476  .00000140  00000-0  00000+0 0  9999
2 27509   5.8752  56.0740 0001551 296.6748 262.4704  1.00270303 60353
DMSP 5D-3 F16 (USA 172) 
1 28054U 03048A   19042.97337015 -.00000097  00000-0 -28198-4 0  9995
2 28054  98.8507  20.3873 0007500 170.2979 259.3608 14.13700559790349
NOAA 18                 
1 28654U 05018A   19042.90376968  .00000059  00000-0  56870-4 0  9997
2 28654  99.1154  87.8601 0014559 170.8367 189.3072 14.12403484707524
METEOSAT-9 (MSG-2)      
1 28912U 05049B   19042.25817870  .00000024  00000-0  00000+0 0  9999
2 28912   3.4050  71.5024 0001445 328.7972 197.3499  1.00279992 48178
HIMAWARI-7 (MTSAT-2)    
1 28937U 06004A   19043.02688458 -.00000241  00000-0  00000+0 0  9994
2 28937   0.0446 210.4705 0003577 109.1744 336.7997  1.00271015 47453
FORMOSAT-3 FM6          
1 29047U 06011A   19042.95540306 -.00000036  00000-0  23142-5 0  9995
2 29047  71.9790  33.0874 0051068 192.2652 167.7246 14.28664520671127
FORMOSAT-3 FM1          
1 29048U 06011B   19043.17031568  .00000066  00000-0  42190-4 0  9991
2 29048  71.9675 304.1353 0042995 148.3248 212.0489 14.28613363673647
FORMOSAT-3 FM5          
1 29049U 06011C   19042.49923716  .00000041  00000-0  32530-4 0  9991
2 29049  72.0205 114.3688 0035110 182.0991 178.0004 14.28695982669334
FORMOSAT-3 FM3          
1 29050U 06011D   19042.89727701  .00000086  00000-0  28408-4 0  9991
2 29050  72.0168 309.8265 0048811 140.1113 220.3643 14.58762390684641
FORMOSAT-3 FM4          
1 29051U 06011E   19042.92929865  .00000060  00000-0  39152-4 0  9991
2 29051  72.0065  16.4694 0066418  53.7705 306.9546 14.28722383671985
FORMOSAT-3 FM2          
1 29052U 06011F   19042.61307473  .00000058  00000-0  38756-4 0  9999
2 29052  72.0340  89.8560 0038826 141.5692 218.8222 14.28821793669446
GOES 13                 
1 29155U 06018A   19042.90572749 -.00000281  00000-0  00000-0 0  9998
2 29155   0.3757 101.2168 0008183 315.0043 351.4157  1.00262907 16472
METOP-A                 
1 29499U 06044A   19042.97410880 -.00000017  00000-0  11838-4 0  9994
2 29499  98.5940  99.6455 0000841 153.5145 198.4353 14.21541914638872
DMSP 5D-3 F17 (USA 191) 
1 29522U 06050A   19042.91293754  .00000004  00000-0  25133-4 0  9999
2 29522  98.8278  61.0114 0010980 132.2045 228.0062 14.14000200633242
FENGYUN 3A              
1 32958U 08026A   19043.05277434  .00000018  00000-0  27887-4 0  9997
2 32958  98.3788  50.1706 0009349 329.7543  30.3102 14.19731095555159
FENGYUN 2E              
1 33463U 08066A   19042.94343459 -.00000202  00000-0  00000-0 0  9991
2 33463   3.3450  69.2696 0004480 257.1375 241.5777  1.00277143 37198
NOAA 19                 
1 33591U 09005A   19042.95052801  .00000057  00000-0  56055-4 0  9998
2 33591  99.1703  31.0707 0014287  17.8933 342.2738 14.12333766515751
GOES 14                 
1 35491U 09033A   19042.92618689 -.00000091  00000-0  00000-0 0  9993
2 35491   0.0159 131.3743 0009796 111.8129 127.6406  1.00271107 35222
METEOR-M 1              
1 35865U 09049A   19043.03152865  .00000020  00000-0  27820-4 0  9991
2 35865  98.4094  46.9868 0002539 157.6130 202.5160 14.22183539488077
DMSP 5D-3 F18 (USA 210) 
1 35951U 09057A   19042.97143254  .00000025  00000-0  35844-4 0  9990
2 35951  98.6168  45.3393 0010643 337.1322  22.9376 14.13173849254264
GOES 15                 
1 36411U 10008A   19042.65292538  .00000057  00000-0  00000-0 0  9992
2 36411   0.0644 274.0352 0003383 347.3045 347.0663  1.00264458 32775
COMS 1                  
1 36744U 10032A   19042.99114642 -.00000342  00000-0  00000+0 0  9991
2 36744   0.0096 128.9355 0000532 157.2658 340.4883  1.00272620 31754
FENGYUN 3B              
1 37214U 10059A   19043.01884629 -.00000022  00000-0  12153-4 0  9998
2 37214  98.9829  13.8956 0016201 218.7367 141.2650 14.15906299428133
SUOMI NPP               
1 37849U 11061A   19042.90962012  .00000004  00000-0  22793-4 0  9996
2 37849  98.7252 342.8874 0000718 112.0591 288.5045 14.19556755377891
FENGYUN 2F              
1 38049U 12002A   19042.93275049 -.00000355  00000-0  00000-0 0  9998
2 38049   0.9688  80.0882 0001198  31.1031 118.2452  1.00268085 25999
METEOSAT-10 (MSG-3)     
1 38552U 12035B   19042.89571025  .00000063  00000-0  00000-0 0  9996
2 38552   0.9891   8.9686 0000205 325.3995 139.0966  1.00265959 23996
METOP-B                 
1 38771U 12049A   19042.95353010 -.00000022  00000-0  10133-4 0  9991
2 38771  98.7221 103.9429 0000820  36.4493 323.3053 14.21480816332196
FENGYUN 3C              
1 39260U 13052A   19043.05693892 -.00000009  00000-0  16879-4 0  9995
2 39260  98.6225 106.1522 0010907 181.3703 178.7447 14.15860620279088
METEOR-M 2              
1 40069U 14037A   19043.08680827 -.00000003  00000-0  18404-4 0  9995
2 40069  98.5702  92.3900 0004486 268.2896  91.7772 14.20659034238446
HIMAWARI-8              
1 40267U 14060A   19043.02688458 -.00000274  00000-0  00000+0 0  9991
2 40267   0.0166 102.5234 0000991 233.3279 316.2818  1.00270606 15961
FENGYUN 2G              
1 40367U 14090A   19042.93673766 -.00000302  00000-0  00000-0 0  9993
2 40367   0.9497 104.4229 0002423 293.4556 180.7397  1.00276462 15142
METEOSAT-11 (MSG-4)     
1 40732U 15034A   19042.89387830  .00000002  00000-0  00000-0 0  9993
2 40732   0.9650 227.6709 0001289  71.9490 164.2247  1.00262975 13148
ELEKTRO-L 2             
1 41105U 15074A   19042.90897013 -.00000095  00000-0  00000-0 0  9996
2 41105   0.0883 155.1621 0001203 213.1735 176.6092  1.00272363 11626
HIMAWARI-9              
1 41836U 16064A   19043.02688458 -.00000273  00000-0  00000+0 0  9999
2 41836   0.0358 267.2626 0000539  46.6036 338.3441  1.00273207  8403
GOES 16                 
1 41866U 16071A   19042.87861201 -.00000246  00000-0  00000-0 0  9992
2 41866   0.0430 250.7942 0000531  89.1471  42.7851  1.00271148  8214
FENGYUN 4A              
1 41882U 16077A   19042.93853819 -.00000326  00000-0  00000-0 0  9998
2 41882   0.0696  84.0306 0004339  14.4879 125.5181  1.00264161  8089
CYGFM05                 
1 41884U 16078A   19042.90599159  .00000237  00000-0  14399-4 0  9992
2 41884  34.9552 232.5720 0016380 333.9913  25.9974 15.14305357119545
CYGFM04                 
1 41885U 16078B   19042.90966340  .00000278  00000-0  16329-4 0  9993
2 41885  34.9484 228.3883 0014659 339.2517  20.7598 15.14811498119586
CYGFM02                 
1 41886U 16078C   19042.90277107  .00000260  00000-0  15435-4 0  9998
2 41886  34.9576 229.8269 0015472 336.7895  23.2116 15.14810366119574
CYGFM01                 
1 41887U 16078D   19042.88071102  .00000238  00000-0  14531-4 0  9994
2 41887  34.9520 233.1221 0016825 335.2174  24.7728 15.14125210119535
CYGFM08                 
1 41888U 16078E   19042.87422641  .00000245  00000-0  14704-4 0  9992
2 41888  34.9490 230.9884 0015936 338.4640  21.5400 15.14530380119548
CYGFM06                 
1 41889U 16078F   19042.87893086  .00000250  00000-0  14868-4 0  9995
2 41889  34.9570 228.6443 0014391 336.2703  23.7344 15.14803149119573
CYGFM07                 
1 41890U 16078G   19042.92326367  .00000263  00000-0  15562-4 0  9992
2 41890  34.9508 227.6920 0014108 338.7974  21.2151 15.14803867119585
CYGFM03                 
1 41891U 16078H   19042.85221188  .00000357  00000-0  20518-4 0  9991
2 41891  34.9563 228.2546 0013887 337.2614  22.7461 15.14804573119570
FENGYUN 3D              
1 43010U 17072A   19043.08193114 -.00000008  00000-0  16894-4 0  9990
2 43010  98.7024 344.4285 0002517  63.1556 296.9881 14.19714106 64479
NOAA 20                 
1 43013U 17073A   19042.86652277  .00000009  00000-0  25231-4 0  9994
2 43013  98.7508 342.9219 0000724  73.4001 286.7255 14.19538992 63913
GOES 17                 
1 43226U 18022A   19042.57930021  .00000100  00000-0  00000-0 0  9994
2 43226   0.0207  78.1277 0003188 289.2467 205.2869  1.00270474  3514
FENGYUN 2H              
1 43491U 18050A   19043.12496644 -.00000124  00000-0  00000+0 0  9995
2 43491   1.7953 283.4146 0002157 255.6144  86.9081  1.00274115  2610
METOP-C                 
1 43689U 18087A   19042.71880497 -.00000044  00000-0  00000-0 0  9993
2 43689  98.7215 103.9967 0002294 351.3390   8.7748 14.21478455 13739
GEO-KOMPSAT-2A          
1 43823U 18100A   19042.89605275 -.00000342  00000-0  00000-0 0  9998
2 43823   0.0138 153.4527 0001270 243.1870 195.8484  1.00271419   729
